57800,XRISM,2023,95.8,-1.0,+,31.0,Active,0,LEO,Japan,Japan,Unknown,Unknown,Unknown,1 57800U 23137A   24279.47455599  .00020108  00000+0  14401-2 0  9990,2 57800  31.0043  29.6549 0008743 219.7983 140.2013 15.03252553 59285,15.03252553,0.0008743,LEO
59588,ACS3,2024,105.11,-1.0,+,97.44,Active,0,LEO,New Zealand,USA,Unknown,Unknown,Unknown,1 59588U 24077B   24279.09686931  .00007831  00000+0  88657-2 0  9995,2 59588  97.4383 321.8297 0050704 185.5346 174.5252 13.69972980 22432,13.6997298,0.0050704,LEO
59624,SZ-17 MODULE,2023,91.12,-1.0,+,41.47,Active,0,LEO,PRC,China,Unknown,Unknown,Unknown,1 59624U 23164C   24279.48598916  .00135426  00000+0  67277-3 0  9998,2 59624  41.4714 121.1482 0013195 305.6557  54.3060 15.80625118 24896,15.80625118,0.0013195,LEO
