OBJECT_NAME,OBJECT_ID,EPOCH,MEAN_MOTION,ECCENTRICITY,INCLINATION,RA_OF_ASC_NODE,ARG_OF_PERICENTER,MEAN_ANOMALY,EPHEMERIS_TYPE,CLASSIFICATION_TYPE,NORAD_CAT_ID,ELEMENT_SET_NO,REV_AT_EPOCH,BSTAR,MEAN_MOTION_DOT,MEAN_MOTION_DDOT
XRISM,2023-137A,2024-10-05T11:23:21.637536,15.03252553,0.0008743,31.0043,29.6549,219.7983,140.2013,0,U,57800,999,5928,1.44E-03,2.01E-04,0
ACS3,2024-077B,2024-10-05T02:19:29.508384,13.6997298,0.0050704,97.4383,321.8297,185.5346,174.5252,0,U,59588,999,2243,8.87E-03,7.83E-05,0
SZ-17 MODULE,2023-164C,2024-10-05T11:39:49.463424,15.80625118,0.0013195,41.4714,121.1482,305.6557,54.306,0,U,59624,999,2489,6.73E-04,1.35E-03,0
